ONEWEB-0461             
1 51649U 22012AD  25258.71982658  .00000017  00000+0  10117-4 0  9991
2 51649  87.9051  60.4355 0001811  96.8251 263.3087 13.17651367177747
ONEWEB-0463             
1 51650U 22012AE  25258.70126597 -.00000023  00000+0 -91278-4 0  9990
2 51650  87.9034  60.4983 0001749  90.6109 269.5223 13.17647465177521
ONEWEB-0464             
1 51651U 22012AF  25258.60407833  .00000722  00000+0  20315-2 0  9991
2 51651  87.8735  91.0457 0001360  83.4875 276.6408 13.10372880173365
ONEWEB-0468             
1 51652U 22012AG  25258.76343814  .00000554  00000+0  15517-2 0  9998
2 51652  87.8737  91.0059 0001491  85.6999 274.4298 13.10373889173365
ONEWEB-0473             
1 51653U 22012AH  25258.59577020  .00000610  00000+0  17101-2 0  9992
2 51653  87.8743  91.0429 0001689  81.6869 278.4450 13.10374318173345
ONEWEB-0474             
1 51654U 22012AJ  25258.81654757 -.00000632  00000+0 -18474-2 0  9991
2 51654  87.8748  90.9599 0001485  78.2801 281.8493 13.10369689173361
ONEWEB-0475             
1 51655U 22012AK  25258.71308736  .00000014  00000+0  34772-5 0  9998
2 51655  87.9041  60.4791 0001539  65.0364 295.0928 13.17649899177548
ONEWEB-0490             
1 54113U 22138A   25258.75359206  .00000025  00000+0  29013-4 0  9994
2 54113  87.9287 359.5223 0001595 100.6135 259.5177 13.19727634140635
